KUIPER-00071            
1 64818U 25151C   25333.30629058 -.00003907  00000+0 -48299-3 0  9995
2 64818  51.9011  26.9669 0007243 250.8767 109.1411 14.79960085 20407
KUIPER-00072            
1 64819U 25151D   25334.16671295 -.00015048  00000+0 -20448-2 0  9995
2 64819  51.8997   2.5379 0002449 251.3757  49.1848 14.77922631  4914
KUIPER-00073            
1 64820U 25151E   25334.16671295  .00011559  00000+0  15947-2 0  9996
2 64820  51.9015  23.1431 0012953 282.3855 171.8713 14.78476802  5099
KUIPER-00074            
1 64821U 25151F   25334.09675287  .00005655  00000+0  76974-3 0  9992
2 64821  51.9029  10.9875 0013160 302.6935  57.2758 14.79916965 20696
KUIPER-00075            
1 64822U 25151G   25334.05358679  .00055550  00000+0  13614-2 0  9992
2 64822  51.8756 345.7090 0002982 283.2657  76.7998 15.40191081 21041
KUIPER-00076            
1 64823U 25151H   25334.09396692  .00005697  00000+0  77494-3 0  9998
2 64823  51.9013  13.4967 0004347 293.1777  66.8728 14.79976622 20662
KUIPER-00077            
1 64824U 25151J   25334.15612749  .00004449  00000+0  61215-3 0  9998
2 64824  51.9018  18.2234 0005956 251.4575 108.5741 14.79941017 20601
KUIPER-00078            
1 64825U 25151K   25334.12500889  .00002399  00000+0  34337-3 0  9994
2 64825  51.9016  15.8563 0007787 317.2177  42.8179 14.79967676 20638
